[{"OBJECT_NAME":"STARLINK-5906","OBJECT_ID":"2023-037BA","EPOCH":"2026-03-09T21:59:01.733856","MEAN_MOTION":14.98328179,"ECCENTRICITY":0.00026796,"INCLINATION":69.9984,"RA_OF_ASC_NODE":264.0177,"ARG_OF_PERICENTER":261.8106,"MEAN_ANOMALY":98.2749,"EPHEMERIS_TYPE":0,"CLASSIFICATION_TYPE":"U","NORAD_CAT_ID":55962,"ELEMENT_SET_NO":999,"REV_AT_EPOCH":16450,"BSTAR":-1.06104e-6,"MEAN_MOTION_DOT":-1.06e-6,"MEAN_MOTION_DDOT":0},{"OBJECT_NAME":"SICH-1","OBJECT_ID":"1995-046A","EPOCH":"2026-03-09T16:32:37.076064","MEAN_MOTION":14.94365961,"ECCENTRICITY":0.00171667,"INCLINATION":82.5243,"RA_OF_ASC_NODE":136.8069,"ARG_OF_PERICENTER":299.5667,"MEAN_ANOMALY":60.3842,"EPHEMERIS_TYPE":0,"CLASSIFICATION_TYPE":"U","NORAD_CAT_ID":23657,"ELEMENT_SET_NO":999,"REV_AT_EPOCH":65112,"BSTAR":0.0001874143,"MEAN_MOTION_DOT":2.046e-5,"MEAN_MOTION_DDOT":0}]
